{
  "type": "FeatureCollection",
  "features": [
    {
      "type": "Feature",
      "properties": {
        "norad_id": 30315,
        "name": "FENGYUN 1C DEB",
        "group": "fengyun-1c-debris",
        "lat": -2.76209605009343,
        "lon": -175.38658472008342,
        "alt_km": 853.7229684314325,
        "timestamp": "2025-12-21T18:54:58.771977+00:00",
        "meta_object_name": "FENGYUN 1C DEB",
        "meta_object_id": "1999-025AAC",
        "meta_epoch": "2025-12-21T12:03:20.627712",
        "meta_mean_motion": 14.19076461,
        "meta_eccentricity": 0.0034755,
        "meta_inclination": 98.6015,
        "meta_ra_of_asc_node": 4.7544,
        "meta_arg_of_pericenter": 334.9066,
        "meta_mean_anomaly": 188.4283,
        "meta_ephemeris_type": 0,
        "meta_classification_type": "U",
        "meta_norad_cat_id": 30315,
        "meta_element_set_no": 999,
        "meta_rev_at_epoch": 97831,
        "meta_bstar": 0.00027537849,
        "meta_mean_motion_dot": 5.36e-06,
        "meta_mean_motion_ddot": 0,
        "tle_line1": "1 30315U 99025AAC 25355.50232208  .00000536  00000+0  27538-3 0  9990",
        "tle_line2": "2 30315  98.6015   4.7544 0034755 334.9066 188.4283 14.19076461978313"
      },
      "geometry": {
        "type": "Point",
        "coordinates": [
          -175.38658472008342,
          -2.76209605009343
        ]
      }
    },
    {
      "type": "Feature",
      "properties": {
        "norad_id": 30316,
        "name": "FENGYUN 1C DEB",
        "group": "fengyun-1c-debris",
        "lat": 1.7888801373344694,
        "lon": 98.2585111206961,
        "alt_km": 683.5486472849234,
        "timestamp": "2025-12-21T18:54:58.771987+00:00",
        "meta_object_name": "FENGYUN 1C DEB",
        "meta_object_id": "1999-025AAD",
        "meta_epoch": "2025-12-21T05:42:55.715040",
        "meta_mean_motion": 14.56199742,
        "meta_eccentricity": 0.0035274,
        "meta_inclination": 98.6482,
        "meta_ra_of_asc_node": 97.9609,
        "meta_arg_of_pericenter": 13.4129,
        "meta_mean_anomaly": 346.7997,
        "meta_ephemeris_type": 0,
        "meta_classification_type": "U",
        "meta_norad_cat_id": 30316,
        "meta_element_set_no": 999,
        "meta_rev_at_epoch": 98460,
        "meta_bstar": 0.0014934,
        "meta_mean_motion_dot": 6.609e-05,
        "meta_mean_motion_ddot": 0,
        "tle_line1": "1 30316U 99025AAD 25355.23814485  .00006609  00000+0  14934-2 0  9996",
        "tle_line2": "2 30316  98.6482  97.9609 0035274  13.4129 346.7997 14.56199742984603"
      },
      "geometry": {
        "type": "Point",
        "coordinates": [
          98.2585111206961,
          1.7888801373344694
        ]
      }
    },
    {
      "type": "Feature",
      "properties": {
        "norad_id": 30317,
        "name": "FENGYUN 1C DEB",
        "group": "fengyun-1c-debris",
        "lat": 38.97558540910876,
        "lon": -176.80774029972338,
        "alt_km": 872.7106491631848,
        "timestamp": "2025-12-21T18:54:58.771997+00:00",
        "meta_object_name": "FENGYUN 1C DEB",
        "meta_object_id": "1999-025AAE",
        "meta_epoch": "2025-12-21T11:25:18.417504",
        "meta_mean_motion": 14.06952684,
        "meta_eccentricity": 0.00241318,
        "meta_inclination": 98.7865,
        "meta_ra_of_asc_node": 355.7003,
        "meta_arg_of_pericenter": 251.1179,
        "meta_mean_anomaly": 108.7373,
        "meta_ephemeris_type": 0,
        "meta_classification_type": "U",
        "meta_norad_cat_id": 30317,
        "meta_element_set_no": 999,
        "meta_rev_at_epoch": 97136,
        "meta_bstar": 3.7362569e-05,
        "meta_mean_motion_dot": 1.9e-07,
        "meta_mean_motion_ddot": 0,
        "tle_line1": "1 30317U 99025AAE 25355.47590761  .00000019  00000+0  37363-4 0  9993",
        "tle_line2": "2 30317  98.7865 355.7003 0024131 251.1179 108.7373 14.06952684971369"
      },
      "geometry": {
        "type": "Point",
        "coordinates": [
          -176.80774029972338,
          38.97558540910876
        ]
      }
    },
    {
      "type": "Feature",
      "properties": {
        "norad_id": 30320,
        "name": "FENGYUN 1C DEB",
        "group": "fengyun-1c-debris",
        "lat": -51.655592707567074,
        "lon": 66.90652593036785,
        "alt_km": 856.6635068443311,
        "timestamp": "2025-12-21T18:54:58.772007+00:00",
        "meta_object_name": "FENGYUN 1C DEB",
        "meta_object_id": "1999-025AAH",
        "meta_epoch": "2025-12-21T00:50:57.081696",
        "meta_mean_motion": 13.98558951,
        "meta_eccentricity": 0.00849356,
        "meta_inclination": 99.1863,
        "meta_ra_of_asc_node": 54.3481,
        "meta_arg_of_pericenter": 271.6751,
        "meta_mean_anomaly": 207.0684,
        "meta_ephemeris_type": 0,
        "meta_classification_type": "U",
        "meta_norad_cat_id": 30320,
        "meta_element_set_no": 999,
        "meta_rev_at_epoch": 96523,
        "meta_bstar": 0.00018762828,
        "meta_mean_motion_dot": 2.31e-06,
        "meta_mean_motion_ddot": 0,
        "tle_line1": "1 30320U 99025AAH 25355.03538289  .00000231  00000+0  18763-3 0  9994",
        "tle_line2": "2 30320  99.1863  54.3481 0084935 271.6751 207.0684 13.98558951965235"
      },
      "geometry": {
        "type": "Point",
        "coordinates": [
          66.90652593036785,
          -51.655592707567074
        ]
      }
    },
    {
      "type": "Feature",
      "properties": {
        "norad_id": 30321,
        "name": "FENGYUN 1C DEB",
        "group": "fengyun-1c-debris",
        "lat": -47.100148069005556,
        "lon": 165.1430681867777,
        "alt_km": 801.9122323163301,
        "timestamp": "2025-12-21T18:54:58.772017+00:00",
        "meta_object_name": "FENGYUN 1C DEB",
        "meta_object_id": "1999-025AAJ",
        "meta_epoch": "2025-12-20T21:49:18.316128",
        "meta_mean_motion": 14.16650049,
        "meta_eccentricity": 0.0060243,
        "meta_inclination": 98.6564,
        "meta_ra_of_asc_node": 353.7236,
        "meta_arg_of_pericenter": 213.0381,
        "meta_mean_anomaly": 214.4666,
        "meta_ephemeris_type": 0,
        "meta_classification_type": "U",
        "meta_norad_cat_id": 30321,
        "meta_element_set_no": 999,
        "meta_rev_at_epoch": 97659,
        "meta_bstar": 0.00022574,
        "meta_mean_motion_dot": 4.16e-06,
        "meta_mean_motion_ddot": 0,
        "tle_line1": "1 30321U 99025AAJ 25354.90923977  .00000416  00000+0  22574-3 0  9992",
        "tle_line2": "2 30321  98.6564 353.7236 0060243 213.0381 214.4666 14.16650049976592"
      },
      "geometry": {
        "type": "Point",
        "coordinates": [
          165.1430681867777,
          -47.100148069005556
        ]
      }
    },
    {
      "type": "Feature",
      "properties": {
        "norad_id": 30322,
        "name": "FENGYUN 1C DEB",
        "group": "fengyun-1c-debris",
        "lat": -74.51351355045954,
        "lon": 0.609295939795742,
        "alt_km": 799.9177619880038,
        "timestamp": "2025-12-21T18:54:58.772027+00:00",
        "meta_object_name": "FENGYUN 1C DEB",
        "meta_object_id": "1999-025AAK",
        "meta_epoch": "2025-12-21T02:19:34.888512",
        "meta_mean_motion": 14.06131981,
        "meta_eccentricity": 0.01264853,
        "meta_inclination": 98.3982,
        "meta_ra_of_asc_node": 212.1883,
        "meta_arg_of_pericenter": 229.2511,
        "meta_mean_anomaly": 129.7624,
        "meta_ephemeris_type": 0,
        "meta_classification_type": "U",
        "meta_norad_cat_id": 30322,
        "meta_element_set_no": 999,
        "meta_rev_at_epoch": 96317,
        "meta_bstar": 0.00092721534,
        "meta_mean_motion_dot": 1.598e-05,
        "meta_mean_motion_ddot": 0,
        "tle_line1": "1 30322U 99025AAK 25355.09693158  .00001598  00000+0  92722-3 0  9993",
        "tle_line2": "2 30322  98.3982 212.1883 0126485 229.2511 129.7624 14.06131981963175"
      },
      "geometry": {
        "type": "Point",
        "coordinates": [
          0.609295939795742,
          -74.51351355045954
        ]
      }
    },
    {
      "type": "Feature",
      "properties": {
        "norad_id": 30325,
        "name": "FENGYUN 1C DEB",
        "group": "fengyun-1c-debris",
        "lat": 23.232980466549616,
        "lon": 11.076367184672387,
        "alt_km": 872.2285872045522,
        "timestamp": "2025-12-21T18:54:58.772037+00:00",
        "meta_object_name": "FENGYUN 1C DEB",
        "meta_object_id": "1999-025AAL",
        "meta_epoch": "2025-12-21T00:03:32.477472",
        "meta_mean_motion": 14.09106793,
        "meta_eccentricity": 0.00154568,
        "meta_inclination": 98.7322,
        "meta_ra_of_asc_node": 14.098,
        "meta_arg_of_pericenter": 228.5364,
        "meta_mean_anomaly": 131.448,
        "meta_ephemeris_type": 0,
        "meta_classification_type": "U",
        "meta_norad_cat_id": 30325,
        "meta_element_set_no": 999,
        "meta_rev_at_epoch": 97132,
        "meta_bstar": 9.5424363e-05,
        "meta_mean_motion_dot": 1.23e-06,
        "meta_mean_motion_ddot": 0,
        "tle_line1": "1 30325U 99025AAL 25355.00245923  .00000123  00000+0  95424-4 0  9996",
        "tle_line2": "2 30325  98.7322  14.0980 0015456 228.5364 131.4480 14.09106793971322"
      },
      "geometry": {
        "type": "Point",
        "coordinates": [
          11.076367184672387,
          23.232980466549616
        ]
      }
    }
  ]
}